IRIDIUM 119             
1 42959U 17061E   24323.88527227  .00000542  00000+0  18643-3 0  9994
2 42959  86.3953 265.6179 0002601  84.0578 276.0914 14.34218078372359
IRIDIUM 107             
1 42960U 17061F   24323.83452918  .00000560  00000+0  19281-3 0  9994
2 42960  86.3952 265.6570 0002511  75.7150 284.4325 14.34215621372358
IRIDIUM 132             
1 42961U 17061G   24324.11993998  .00000531  00000+0  18251-3 0  9999
2 42961  86.3953 265.5212 0002384  79.8704 280.2761 14.34217644372399
IRIDIUM 136             
1 42962U 17061H   24323.87259861  .00000490  00000+0  16798-3 0  9994
2 42962  86.3952 265.6286 0002533  81.2087 278.9395 14.34213141372371
IRIDIUM 139             
1 42963U 17061J   24323.87892139  .00000441  00000+0  15030-3 0  9990
2 42963  86.3953 265.6785 0002456  80.1824 279.9649 14.34220485372381
IRIDIUM 125             
1 42964U 17061K   24323.86623442  .00000532  00000+0  18300-3 0  9993
2 42964  86.3956 265.7343 0002903  82.6381 277.5144 14.34215758372390
IRIDIUM 135             
1 43070U 17083A   24323.91012905  .00000617  00000+0  21340-3 0  9990
2 43070  86.4018 202.4191 0001796  84.9863 275.1538 14.34219264361695
IRIDIUM 138             
1 43071U 17083B   24323.93550148  .00000283  00000+0  94059-4 0  9996
2 43071  86.4005 202.1067 0002581  92.0528 268.0963 14.34217535361683
